IRIDIUM 119             
1 42959U 17061E   26011.91498520  .00000020  00000+0 -58810-8 0  9994
2 42959  86.3958  90.6036 0002082 103.4532 256.6896 14.34217644432416
IRIDIUM 107             
1 42960U 17061F   26011.72470825  .00000134  00000+0  40914-4 0  9990
2 42960  86.3960  90.7036 0002550  97.3765 262.7720 14.34217882432396
IRIDIUM 132             
1 42961U 17061G   26011.94035621  .00000022  00000+0  62382-6 0  9997
2 42961  86.3957  90.5940 0002278  96.9173 263.2282 14.34217575432422
IRIDIUM 136             
1 42962U 17061H   26011.97206843  .00000063  00000+0  15395-4 0  9992
2 42962  86.3956  90.5866 0002193  99.4151 260.7293 14.34218016432446
IRIDIUM 139             
1 42963U 17061J   26011.90864307  .00000133  00000+0  40262-4 0  9990
2 42963  86.3962  90.6727 0002295  94.8930 265.2528 14.34217319432444
IRIDIUM 125             
1 42964U 17061K   26011.82618720  .00000155  00000+0  48168-4 0  9995
2 42964  86.3961  90.7653 0002546 105.6076 254.5401 14.34216931432444
IRIDIUM 135             
1 43070U 17083A   26011.52123950  .00000190  00000+0  60859-4 0  9991
2 43070  86.3952  27.4876 0002149  90.3282 269.8160 14.34218180421699
IRIDIUM 138             
1 43071U 17083B   26011.96522092  .00000101  00000+0  28898-4 0  9999
2 43071  86.3964  26.9731 0002114 101.8992 258.2441 14.34218421421743
